{
  "type": "FeatureCollection",
  "features": [
    {
      "type": "Feature",
      "geometry": {
        "type": "Polygon",
        "coordinates": [
          [
            [
              76.39450491670644,
              10.12194083473045
            ],
            [
              76.39450842114405,
              10.12158204551426
            ],
            [
              76.39479928946596,
              10.12162344429045
            ],
            [
              76.39475373177699,
              10.121951184413419
            ],
            [
              76.39450491670644,
              10.12194083473045
            ]
          ]
        ]
      },
      "properties": {
        "name": "INDOCERT Plot",
        "soilId": "SOL-A2-0325",
        "ndvi": 0.45,
        "moisture": 25,
        "temperature": 28,
        "microbes": [
          12,
          18,
          14
        ]
      }
    }
  ]
}